[{"OBJECT_NAME":"SKYKRAFT-1A","OBJECT_ID":"2023-001AX","EPOCH":"2026-03-09T17:03:19.828224","MEAN_MOTION":15.28083228,"ECCENTRICITY":0.00112767,"INCLINATION":97.3349,"RA_OF_ASC_NODE":127.629,"ARG_OF_PERICENTER":121.5092,"MEAN_ANOMALY":238.7251,"EPHEMERIS_TYPE":0,"CLASSIFICATION_TYPE":"U","NORAD_CAT_ID":55054,"ELEMENT_SET_NO":999,"REV_AT_EPOCH":17652,"BSTAR":0.0003006872,"MEAN_MOTION_DOT":8.177e-5,"MEAN_MOTION_DDOT":0},{"OBJECT_NAME":"STARLINK-36542","OBJECT_ID":"2026-008A","EPOCH":"2026-03-09T09:25:55.140384","MEAN_MOTION":15.27630907,"ECCENTRICITY":0.00013345,"INCLINATION":42.9989,"RA_OF_ASC_NODE":207.1817,"ARG_OF_PERICENTER":182.2029,"MEAN_ANOMALY":177.8817,"EPHEMERIS_TYPE":0,"CLASSIFICATION_TYPE":"U","NORAD_CAT_ID":67445,"ELEMENT_SET_NO":999,"REV_AT_EPOCH":952,"BSTAR":0.0011507085,"MEAN_MOTION_DOT":0.00031588,"MEAN_MOTION_DDOT":0}]
